STARLINK-30799          
1 58121U 23162D   25333.02109529  .00000470  00000+0  49855-4 0  9990
2 58121  43.0043 320.3565 0001140 272.1745  87.8967 15.02535993117153
STARLINK-30759          
1 58122U 23162E   25332.99889748  .00000770  00000+0  72087-4 0  9990
2 58122  43.0036 320.2085 0001225 271.1006  88.9696 15.02535596117166
STARLINK-30781          
1 58123U 23162F   25332.99778773  .00000960  00000+0  86114-4 0  9993
2 58123  43.0041 320.1970 0001173 272.0775  87.9933 15.02538202117159
STARLINK-30754          
1 58124U 23162G   25333.01776515  .00001522  00000+0  12774-3 0  9995
2 58124  43.0062 320.3292 0001274 259.4944 100.5755 15.02525908111361
STARLINK-30766          
1 58125U 23162H   25332.06377143 -.00000441  00000+0 -17603-4 0  9992
2 58125  43.0058 325.2307 0001472 272.6029  87.4645 15.02532251117017
STARLINK-30767          
1 58126U 23162J   25333.05762147 -.00001628  00000+0 -10552-3 0  9998
2 58126  43.0042 319.7863 0001187 270.7570  89.3136 15.02521867117162
STARLINK-30790          
1 58127U 23162K   25333.04362044  .00032985  00000+0  23492-2 0  9994
2 58127  43.0032 319.6817 0000517 213.8894 146.1916 15.04046256117167
STARLINK-30787          
1 58128U 23162L   25333.05094521  .00002389  00000+0  19177-3 0  9999
2 58128  43.0043 319.7362 0001454 266.6706  93.3970 15.02555263117169
STARLINK-30756          
1 58129U 23162M   25332.41613551  .00000515  00000+0  53186-4 0  9997
2 58129  43.0055 323.5535 0001055 267.8851  92.1871 15.02533670117063
STARLINK-30783          
1 58130U 23162N   25333.04761824 -.00000154  00000+0  36612-5 0  9992
2 58130  43.0034 319.7075 0001142 268.2995  91.7717 15.02534763117168
STARLINK-30757          
1 58131U 23162P   25332.97780922 -.00000287  00000+0 -61564-5 0  9996
2 58131  43.0052 320.0430 0001159 274.2924  85.7786 15.02534614117159
STARLINK-30770          
1 58132U 23162Q   25333.01110764 -.00000263  00000+0 -44310-5 0  9998
2 58132  43.0044 320.2697 0001061 275.5525  84.5196 15.02535573117158
STARLINK-30758          
1 58133U 23162R   25333.04317690  .00000802  00000+0  74418-4 0  9997
2 58133  43.0049 319.6759 0001180 266.6078  93.4629 15.02534441117165
STARLINK-30761          
1 58134U 23162S   25333.00777753  .00000146  00000+0  25884-4 0  9998
2 58134  43.0044 320.2551 0000840 277.4515  82.6231 15.02534920117157
STARLINK-30772          
1 58135U 23162T   25333.04107580  .00000654  00000+0  63498-4 0  9995
2 58135  43.0064 320.5060 0001201 266.8945  93.1760 15.02535298117152
STARLINK-30776          
1 58136U 23162U   25333.23162527  .00000272  00000+0  35205-4 0  9990
2 58136  43.0019 319.3352 0001095 267.1097  92.9620 15.02537099117182
STARLINK-30782          
1 58137U 23162V   25333.03441441  .00000545  00000+0  55410-4 0  9997
2 58137  43.0041 320.4542 0001311 263.1948  96.8745 15.02535613117152
