[{"OBJECT_NAME":"STARLINK-30799","OBJECT_ID":"2023-162D","EPOCH":"2025-11-29T00:30:22.633056","MEAN_MOTION":15.02535993,"ECCENTRICITY":0.000114,"INCLINATION":43.0043,"RA_OF_ASC_NODE":320.3565,"ARG_OF_PERICENTER":272.1745,"MEAN_ANOMALY":87.8967,"EPHEMERIS_TYPE":0,"CLASSIFICATION_TYPE":"U","NORAD_CAT_ID":58121,"ELEMENT_SET_NO":999,"REV_AT_EPOCH":11715,"BSTAR":4.9855e-5,"MEAN_MOTION_DOT":4.7e-6,"MEAN_MOTION_DDOT":0},{"OBJECT_NAME":"STARLINK-30759","OBJECT_ID":"2023-162E","EPOCH":"2025-11-28T23:58:24.742272","MEAN_MOTION":15.02535596,"ECCENTRICITY":0.0001225,"INCLINATION":43.0036,"RA_OF_ASC_NODE":320.2085,"ARG_OF_PERICENTER":271.1006,"MEAN_ANOMALY":88.9696,"EPHEMERIS_TYPE":0,"CLASSIFICATION_TYPE":"U","NORAD_CAT_ID":58122,"ELEMENT_SET_NO":999,"REV_AT_EPOCH":11716,"BSTAR":7.2087e-5,"MEAN_MOTION_DOT":7.7e-6,"MEAN_MOTION_DDOT":0},{"OBJECT_NAME":"STARLINK-30781","OBJECT_ID":"2023-162F","EPOCH":"2025-11-28T23:56:48.859872","MEAN_MOTION":15.02538202,"ECCENTRICITY":0.0001173,"INCLINATION":43.0041,"RA_OF_ASC_NODE":320.197,"ARG_OF_PERICENTER":272.0775,"MEAN_ANOMALY":87.9933,"EPHEMERIS_TYPE":0,"CLASSIFICATION_TYPE":"U","NORAD_CAT_ID":58123,"ELEMENT_SET_NO":999,"REV_AT_EPOCH":11715,"BSTAR":8.6114e-5,"MEAN_MOTION_DOT":9.6e-6,"MEAN_MOTION_DDOT":0},{"OBJECT_NAME":"STARLINK-30754","OBJECT_ID":"2023-162G","EPOCH":"2025-11-29T00:25:34.908960","MEAN_MOTION":15.02525908,"ECCENTRICITY":0.0001274,"INCLINATION":43.0062,"RA_OF_ASC_NODE":320.3292,"ARG_OF_PERICENTER":259.4944,"MEAN_ANOMALY":100.5755,"EPHEMERIS_TYPE":0,"CLASSIFICATION_TYPE":"U","NORAD_CAT_ID":58124,"ELEMENT_SET_NO":999,"REV_AT_EPOCH":11136,"BSTAR":0.00012774,"MEAN_MOTION_DOT":1.522e-5,"MEAN_MOTION_DDOT":0},{"OBJECT_NAME":"STARLINK-30766","OBJECT_ID":"2023-162H","EPOCH":"2025-11-28T01:31:49.851552","MEAN_MOTION":15.02532251,"ECCENTRICITY":0.0001472,"INCLINATION":43.0058,"RA_OF_ASC_NODE":325.2307,"ARG_OF_PERICENTER":272.6029,"MEAN_ANOMALY":87.4645,"EPHEMERIS_TYPE":0,"CLASSIFICATION_TYPE":"U","NORAD_CAT_ID":58125,"ELEMENT_SET_NO":999,"REV_AT_EPOCH":11701,"BSTAR":-1.7603272e-5,"MEAN_MOTION_DOT":-4.41e-6,"MEAN_MOTION_DDOT":0},{"OBJECT_NAME":"STARLINK-30767","OBJECT_ID":"2023-162J","EPOCH":"2025-11-29T01:22:58.495008","MEAN_MOTION":15.02521867,"ECCENTRICITY":0.0001187,"INCLINATION":43.0042,"RA_OF_ASC_NODE":319.7863,"ARG_OF_PERICENTER":270.757,"MEAN_ANOMALY":89.3136,"EPHEMERIS_TYPE":0,"CLASSIFICATION_TYPE":"U","NORAD_CAT_ID":58126,"ELEMENT_SET_NO":999,"REV_AT_EPOCH":11716,"BSTAR":-0.00010552,"MEAN_MOTION_DOT":-1.628e-5,"MEAN_MOTION_DDOT":0},{"OBJECT_NAME":"STARLINK-30790","OBJECT_ID":"2023-162K","EPOCH":"2025-11-29T01:02:48.806016","MEAN_MOTION":15.04046256,"ECCENTRICITY":5.17e-5,"INCLINATION":43.0032,"RA_OF_ASC_NODE":319.6817,"ARG_OF_PERICENTER":213.8894,"MEAN_ANOMALY":146.1916,"EPHEMERIS_TYPE":0,"CLASSIFICATION_TYPE":"U","NORAD_CAT_ID":58127,"ELEMENT_SET_NO":999,"REV_AT_EPOCH":11716,"BSTAR":0.0023492,"MEAN_MOTION_DOT":0.00032985,"MEAN_MOTION_DDOT":0},{"OBJECT_NAME":"STARLINK-30787","OBJECT_ID":"2023-162L","EPOCH":"2025-11-29T01:13:21.666144","MEAN_MOTION":15.02555263,"ECCENTRICITY":0.0001454,"INCLINATION":43.0043,"RA_OF_ASC_NODE":319.7362,"ARG_OF_PERICENTER":266.6706,"MEAN_ANOMALY":93.397,"EPHEMERIS_TYPE":0,"CLASSIFICATION_TYPE":"U","NORAD_CAT_ID":58128,"ELEMENT_SET_NO":999,"REV_AT_EPOCH":11716,"BSTAR":0.00019177,"MEAN_MOTION_DOT":2.389e-5,"MEAN_MOTION_DDOT":0},{"OBJECT_NAME":"STARLINK-30756","OBJECT_ID":"2023-162M","EPOCH":"2025-11-28T09:59:14.108064","MEAN_MOTION":15.0253367,"ECCENTRICITY":0.00010556,"INCLINATION":43.0055,"RA_OF_ASC_NODE":323.5535,"ARG_OF_PERICENTER":267.8851,"MEAN_ANOMALY":92.1871,"EPHEMERIS_TYPE":0,"CLASSIFICATION_TYPE":"U","NORAD_CAT_ID":58129,"ELEMENT_SET_NO":999,"REV_AT_EPOCH":11706,"BSTAR":5.3186078e-5,"MEAN_MOTION_DOT":5.15e-6,"MEAN_MOTION_DDOT":0},{"OBJECT_NAME":"STARLINK-30783","OBJECT_ID":"2023-162N","EPOCH":"2025-11-29T01:08:34.215936","MEAN_MOTION":15.02534763,"ECCENTRICITY":0.0001142,"INCLINATION":43.0034,"RA_OF_ASC_NODE":319.7075,"ARG_OF_PERICENTER":268.2995,"MEAN_ANOMALY":91.7717,"EPHEMERIS_TYPE":0,"CLASSIFICATION_TYPE":"U","NORAD_CAT_ID":58130,"ELEMENT_SET_NO":999,"REV_AT_EPOCH":11716,"BSTAR":3.6612e-6,"MEAN_MOTION_DOT":-1.54e-6,"MEAN_MOTION_DDOT":0},{"OBJECT_NAME":"STARLINK-30757","OBJECT_ID":"2023-162P","EPOCH":"2025-11-28T23:28:02.716608","MEAN_MOTION":15.02534614,"ECCENTRICITY":0.0001159,"INCLINATION":43.0052,"RA_OF_ASC_NODE":320.043,"ARG_OF_PERICENTER":274.2924,"MEAN_ANOMALY":85.7786,"EPHEMERIS_TYPE":0,"CLASSIFICATION_TYPE":"U","NORAD_CAT_ID":58131,"ELEMENT_SET_NO":999,"REV_AT_EPOCH":11715,"BSTAR":-6.1564e-6,"MEAN_MOTION_DOT":-2.87e-6,"MEAN_MOTION_DDOT":0},{"OBJECT_NAME":"STARLINK-30770","OBJECT_ID":"2023-162Q","EPOCH":"2025-11-29T00:15:59.700096","MEAN_MOTION":15.02535573,"ECCENTRICITY":0.0001061,"INCLINATION":43.0044,"RA_OF_ASC_NODE":320.2697,"ARG_OF_PERICENTER":275.5525,"MEAN_ANOMALY":84.5196,"EPHEMERIS_TYPE":0,"CLASSIFICATION_TYPE":"U","NORAD_CAT_ID":58132,"ELEMENT_SET_NO":999,"REV_AT_EPOCH":11715,"BSTAR":-4.431e-6,"MEAN_MOTION_DOT":-2.63e-6,"MEAN_MOTION_DDOT":0},{"OBJECT_NAME":"STARLINK-30758","OBJECT_ID":"2023-162R","EPOCH":"2025-11-29T01:02:10.484160","MEAN_MOTION":15.02534441,"ECCENTRICITY":0.000118,"INCLINATION":43.0049,"RA_OF_ASC_NODE":319.6759,"ARG_OF_PERICENTER":266.6078,"MEAN_ANOMALY":93.4629,"EPHEMERIS_TYPE":0,"CLASSIFICATION_TYPE":"U","NORAD_CAT_ID":58133,"ELEMENT_SET_NO":999,"REV_AT_EPOCH":11716,"BSTAR":7.4418e-5,"MEAN_MOTION_DOT":8.02e-6,"MEAN_MOTION_DDOT":0},{"OBJECT_NAME":"STARLINK-30761","OBJECT_ID":"2023-162S","EPOCH":"2025-11-29T00:11:11.978592","MEAN_MOTION":15.0253492,"ECCENTRICITY":8.4e-5,"INCLINATION":43.0044,"RA_OF_ASC_NODE":320.2551,"ARG_OF_PERICENTER":277.4515,"MEAN_ANOMALY":82.6231,"EPHEMERIS_TYPE":0,"CLASSIFICATION_TYPE":"U","NORAD_CAT_ID":58134,"ELEMENT_SET_NO":999,"REV_AT_EPOCH":11715,"BSTAR":2.5884e-5,"MEAN_MOTION_DOT":1.46e-6,"MEAN_MOTION_DDOT":0},{"OBJECT_NAME":"STARLINK-30772","OBJECT_ID":"2023-162T","EPOCH":"2025-11-29T00:59:08.949120","MEAN_MOTION":15.02535298,"ECCENTRICITY":0.0001201,"INCLINATION":43.0064,"RA_OF_ASC_NODE":320.506,"ARG_OF_PERICENTER":266.8945,"MEAN_ANOMALY":93.176,"EPHEMERIS_TYPE":0,"CLASSIFICATION_TYPE":"U","NORAD_CAT_ID":58135,"ELEMENT_SET_NO":999,"REV_AT_EPOCH":11715,"BSTAR":6.3498e-5,"MEAN_MOTION_DOT":6.54e-6,"MEAN_MOTION_DDOT":0},{"OBJECT_NAME":"STARLINK-30776","OBJECT_ID":"2023-162U","EPOCH":"2025-11-29T05:33:32.423328","MEAN_MOTION":15.02537099,"ECCENTRICITY":0.0001095,"INCLINATION":43.0019,"RA_OF_ASC_NODE":319.3352,"ARG_OF_PERICENTER":267.1097,"MEAN_ANOMALY":92.962,"EPHEMERIS_TYPE":0,"CLASSIFICATION_TYPE":"U","NORAD_CAT_ID":58136,"ELEMENT_SET_NO":999,"REV_AT_EPOCH":11718,"BSTAR":3.5205e-5,"MEAN_MOTION_DOT":2.72e-6,"MEAN_MOTION_DDOT":0},{"OBJECT_NAME":"STARLINK-30782","OBJECT_ID":"2023-162V","EPOCH":"2025-11-29T00:49:33.405024","MEAN_MOTION":15.02535613,"ECCENTRICITY":0.0001311,"INCLINATION":43.0041,"RA_OF_ASC_NODE":320.4542,"ARG_OF_PERICENTER":263.1948,"MEAN_ANOMALY":96.8745,"EPHEMERIS_TYPE":0,"CLASSIFICATION_TYPE":"U","NORAD_CAT_ID":58137,"ELEMENT_SET_NO":999,"REV_AT_EPOCH":11715,"BSTAR":5.541e-5,"MEAN_MOTION_DOT":5.45e-6,"MEAN_MOTION_DDOT":0}]
